IRIDIUM 107             
1 42960U 17061F   24144.59917788  .00000575  00000+0  19831-3 0  9996
2 42960  86.3965 340.6156 0001895  86.4595 273.6817 14.34226208346666
IRIDIUM 132             
1 42961U 17061G   24144.60552775  .00000566  00000+0  19514-3 0  9998
2 42961  86.3965 340.5979 0001773  90.5247 269.6152 14.34224396346667
IRIDIUM 136             
1 42962U 17061H   24144.63724118  .00000531  00000+0  18243-3 0  9994
2 42962  86.3966 340.5880 0002169  78.5208 281.6232 14.34218618346688
IRIDIUM 125             
1 42964U 17061K   24144.63088349  .00000494  00000+0  16920-3 0  9993
2 42964  86.3968 340.6873 0001892  78.3785 281.7623 14.34214734346708
IRIDIUM 135             
1 43070U 17083A   24144.88411477  .00000681  00000+0  23613-3 0  9990
2 43070  86.3944 277.2288 0002371 100.3024 259.8439 14.34215220336038
IRIDIUM 138             
1 43071U 17083B   24144.76992654  .00000345  00000+0  11614-3 0  9994
2 43071  86.3949 276.9995 0002280  82.0202 278.1252 14.34211286336000
